HIERARCHY
ROOT hip
{
  OFFSET 0 0 0
  CHANNELS 6 Xposition Yposition Zposition Zrotation Yrotation Xrotation
  JOINT spine
  {
    OFFSET 0 12 0
    CHANNELS 3 Zrotation Xrotation Yrotation
    JOINT chest
    {
      OFFSET 0 16 0
      CHANNELS 3 Zrotation Xrotation Yrotation
      JOINT neck
      {
        OFFSET 0 22 0
        CHANNELS 3 Zrotation Xrotation Yrotation
        JOINT head
        {
          OFFSET 0 8 1
          CHANNELS 3 Zrotation Xrotation Yrotation
          End Site
          {
            OFFSET 0 16 0
          }
        }
      }
      JOINT lShoulder
      {
        OFFSET 4 20 -2
        CHANNELS 3 Zrotation Xrotation Yrotation
        JOINT lArm
        {
          OFFSET 12 0 0
          CHANNELS 3 Zrotation Xrotation Yrotation
          JOINT lForeArm
          {
            OFFSET 28 0 0
            CHANNELS 3 Zrotation Xrotation Yrotation
            JOINT lHand
            {
              OFFSET 24 0 0
              CHANNELS 3 Zrotation Xrotation Yrotation
              End Site
              {
                OFFSET 10 0 0
              }
            }
          }
        }
      }
      JOINT rShoulder
      {
        OFFSET -4 20 -2
        CHANNELS 3 Zrotation Xrotation Yrotation
        JOINT rArm
        {
          OFFSET -12 0 0
          CHANNELS 3 Zrotation Xrotation Yrotation
          JOINT rForeArm
          {
            OFFSET -28 0 0
            CHANNELS 3 Zrotation Xrotation Yrotation
            JOINT rHand
            {
              OFFSET -24 0 0
              CHANNELS 3 Zrotation Xrotation Yrotation
              End Site
              {
                OFFSET -10 0 0
              }
            }
          }
        }
      }
    }
  }
  JOINT lUpLeg
  {
    OFFSET 9 -4 0
    CHANNELS 3 Zrotation Xrotation Yrotation
    JOINT lLeg
    {
      OFFSET 0 -40 1
      CHANNELS 3 Zrotation Xrotation Yrotation
      JOINT lFoot
      {
        OFFSET 0 -40 -2
        CHANNELS 3 Zrotation Xrotation Yrotation
        End Site
        {
          OFFSET 0 -4 12
        }
      }
    }
  }
  JOINT rUpLeg
  {
    OFFSET -9 -4 0
    CHANNELS 3 Zrotation Xrotation Yrotation
    JOINT rLeg
    {
      OFFSET 0 -40 1
      CHANNELS 3 Zrotation Xrotation Yrotation
      JOINT rFoot
      {
        OFFSET 0 -40 -2
        CHANNELS 3 Zrotation Xrotation Yrotation
        End Site
        {
          OFFSET 0 -4 12
        }
      }
    }
  }
}
MOTION
Frames:	90
Frame Time:	0.03333333
0.0000 88.0000 0.0000 0.0000 0.0000 0.0000 0.0000 -0.0000 0.0000 0.0000 0.0000 0.0000 0.0000 0.0000 0.0000 0.0000 0.0000 0.0000 0.0000 0.0000 0.0000 -70.0000 0.0000 0.0000 0.0000 0.0000 0.0000 0.0000 0.0000 0.0000 0.0000 0.0000 0.0000 70.0000 0.0000 0.0000 -0.0000 0.0000 0.0000 0.0000 0.0000 0.0000 0.0000 0.0000 0.0000 0.0000 0.0000 0.0000 0.0000 -0.0000 0.0000 -0.0000 -0.0000 0.0000 0.0000 0.0000 0.0000 0.0000 -0.0000 0.0000
0.0000 88.0000 0.0000 0.0000 0.0000 0.0000 0.0000 -0.0000 0.0000 0.0000 0.0000 0.0000 0.0000 0.0000 0.0000 0.0000 0.0000 0.0000 0.0000 0.0000 0.0000 -70.0000 0.0000 0.0000 0.0000 0.0000 0.0000 0.0000 0.0000 0.0000 0.0000 0.0000 0.0000 70.0000 0.0000 0.0000 -0.0000 0.0000 0.0000 0.0000 0.0000 0.0000 0.0000 0.0000 0.0000 0.0000 0.0000 0.0000 0.0000 -0.0000 0.0000 -0.0000 -0.0000 0.0000 0.0000 0.0000 0.0000 0.0000 -0.0000 0.0000
0.0000 88.0000 0.0000 0.0000 0.0000 0.0000 0.0000 -0.0000 0.0000 0.0000 0.0000 0.0000 0.0000 0.0000 0.0000 0.0000 0.0000 0.0000 0.0000 0.0000 0.0000 -70.0000 0.0000 0.0000 0.0000 0.0000 0.0000 0.0000 0.0000 0.0000 0.0000 0.0000 0.0000 70.0000 0.0000 0.0000 -0.0000 0.0000 0.0000 0.0000 0.0000 0.0000 0.0000 0.0000 0.0000 0.0000 0.0000 0.0000 0.0000 -0.0000 0.0000 -0.0000 -0.0000 0.0000 0.0000 0.0000 0.0000 0.0000 -0.0000 0.0000
0.0000 88.0000 0.0000 0.0000 0.0000 0.0000 0.0000 -0.0000 0.0000 0.0000 0.0000 0.0000 0.0000 0.0000 0.0000 0.0000 0.0000 0.0000 0.0000 0.0000 0.0000 -70.0000 0.0000 0.0000 0.0000 0.0000 0.0000 0.0000 0.0000 0.0000 0.0000 0.0000 0.0000 70.0000 0.0000 0.0000 -0.0000 0.0000 0.0000 0.0000 0.0000 0.0000 0.0000 0.0000 0.0000 0.0000 0.0000 0.0000 0.0000 -0.0000 0.0000 -0.0000 -0.0000 0.0000 0.0000 0.0000 0.0000 0.0000 -0.0000 0.0000
0.0000 88.0000 0.0000 0.0000 0.0000 0.0000 0.0000 -0.0000 0.0000 0.0000 0.0000 0.0000 0.0000 0.0000 0.0000 0.0000 0.0000 0.0000 0.0000 0.0000 0.0000 -70.0000 0.0000 0.0000 0.0000 0.0000 0.0000 0.0000 0.0000 0.0000 0.0000 0.0000 0.0000 70.0000 0.0000 0.0000 -0.0000 0.0000 0.0000 0.0000 0.0000 0.0000 0.0000 0.0000 0.0000 0.0000 0.0000 0.0000 0.0000 -0.0000 0.0000 -0.0000 -0.0000 0.0000 0.0000 0.0000 0.0000 0.0000 -0.0000 0.0000
0.0000 88.0058 0.0000 0.0000 0.0000 0.0000 0.0000 -0.0058 0.0000 0.0000 0.0000 0.0000 0.0000 0.0000 0.0000 0.0000 0.0088 0.0000 0.0000 0.0000 0.0000 -69.6789 0.0000 0.0000 0.0365 0.0000 0.0000 0.0000 0.0000 0.0000 0.0000 0.0000 0.0000 69.6789 0.0000 0.0000 -0.0365 0.0000 0.0000 0.0000 0.0000 0.0000 0.0000 0.0000 0.0000 0.0000 0.0000 0.0000 0.0000 -0.0365 0.0000 -0.0365 -0.1168 0.0000 0.0000 0.1824 0.0000 0.0000 -0.0438 0.0000
0.0000 88.0510 0.0000 0.0000 0.0000 0.0000 0.0000 -0.0510 0.0000 0.0000 0.0000 0.0000 0.0000 0.0000 0.0000 0.0000 0.0764 0.0000 0.0000 0.0000 0.0000 -67.1970 0.0000 0.0000 0.3185 0.0000 0.0000 0.0000 0.0000 0.0000 0.0000 0.0000 0.0000 67.1970 0.0000 0.0000 -0.3185 0.0000 0.0000 0.0000 0.0000 0.0000 0.0000 0.0000 0.0000 0.0000 0.0000 0.0000 0.0000 -0.3185 0.0000 -0.3185 -1.0193 0.0000 0.0000 1.5926 0.0000 0.0000 -0.3822 0.0000
0.0000 88.1372 0.0000 0.0000 0.0000 0.0000 0.0000 -0.1372 0.0000 0.0000 0.0000 0.0000 0.0000 0.0000 0.0000 0.0000 0.2058 0.0000 0.0000 0.0000 0.0000 -62.4554 0.0000 0.0000 0.8573 0.0000 0.0000 0.0000 0.0000 0.0000 0.0000 0.0000 0.0000 62.4554 0.0000 0.0000 -0.8573 0.0000 0.0000 0.0000 0.0000 0.0000 0.0000 0.0000 0.0000 0.0000 0.0000 0.0000 0.0000 -0.8573 0.0000 -0.8573 -2.7435 0.0000 0.0000 4.2867 0.0000 0.0000 -1.0288 0.0000
0.0000 88.2603 0.0000 0.0000 0.0000 0.0000 0.0000 -0.2603 0.0000 0.0000 0.0000 0.0000 0.0000 0.0000 0.0000 0.0000 0.3904 0.0000 0.0000 0.0000 0.0000 -55.6858 0.0000 0.0000 1.6266 0.0000 0.0000 0.0000 0.0000 0.0000 0.0000 0.0000 0.0000 55.6858 0.0000 0.0000 -1.6266 0.0000 0.0000 0.0000 0.0000 0.0000 0.0000 0.0000 0.0000 0.0000 0.0000 0.0000 0.0000 -1.6266 0.0000 -1.6266 -5.2052 0.0000 0.0000 8.1331 0.0000 0.0000 -1.9519 0.0000
0.0000 88.4160 0.0000 0.0000 0.0000 0.0000 0.0000 -0.4160 0.0000 0.0000 0.0000 0.0000 0.0000 0.0000 0.0000 0.0000 0.6240 0.0000 0.0000 0.0000 0.0000 -47.1200 0.0000 0.0000 2.6000 0.0000 0.0000 0.0000 0.0000 0.0000 0.0000 0.0000 0.0000 47.1200 0.0000 0.0000 -2.6000 0.0000 0.0000 0.0000 0.0000 0.0000 0.0000 0.0000 0.0000 0.0000 0.0000 0.0000 0.0000 -2.6000 0.0000 -2.6000 -8.3200 0.0000 0.0000 13.0000 0.0000 0.0000 -3.1200 0.0000
0.0000 88.6002 0.0000 0.0000 0.0000 0.0000 0.0000 -0.6002 0.0000 0.0000 0.0000 0.0000 0.0000 0.0000 0.0000 0.0000 0.9003 0.0000 0.0000 0.0000 0.0000 -36.9897 0.0000 0.0000 3.7512 0.0000 0.0000 0.0000 0.0000 0.0000 0.0000 0.0000 0.0000 36.9897 0.0000 0.0000 -3.7512 0.0000 0.0000 0.0000 0.0000 0.0000 0.0000 0.0000 0.0000 0.0000 0.0000 0.0000 0.0000 -3.7512 0.0000 -3.7512 -12.0037 0.0000 0.0000 18.7558 0.0000 0.0000 -4.5014 0.0000
0.0000 88.8086 0.0000 0.0000 0.0000 0.0000 0.0000 -0.8086 0.0000 0.0000 0.0000 0.0000 0.0000 0.0000 0.0000 0.0000 1.2129 0.0000 0.0000 0.0000 0.0000 -25.5268 0.0000 0.0000 5.0538 0.0000 0.0000 0.0000 0.0000 0.0000 0.0000 0.0000 0.0000 25.5268 0.0000 0.0000 -5.0538 0.0000 0.0000 0.0000 0.0000 0.0000 0.0000 0.0000 0.0000 0.0000 0.0000 0.0000 0.0000 -5.0538 0.0000 -5.0538 -16.1721 0.0000 0.0000 25.2689 0.0000 0.0000 -6.0645 0.0000
0.0000 89.0370 0.0000 0.0000 0.0000 0.0000 0.0000 -1.0370 0.0000 0.0000 0.0000 0.0000 0.0000 0.0000 0.0000 0.0000 1.5556 0.0000 0.0000 0.0000 0.0000 -12.9630 0.0000 0.0000 6.4815 0.0000 0.0000 0.0000 0.0000 0.0000 0.0000 0.0000 0.0000 12.9630 0.0000 0.0000 -6.4815 0.0000 0.0000 0.0000 0.0000 0.0000 0.0000 0.0000 0.0000 0.0000 0.0000 0.0000 0.0000 -6.4815 0.0000 -6.4815 -20.7407 0.0000 0.0000 32.4074 0.0000 0.0000 -7.7778 0.0000
0.0000 89.2813 0.0000 0.0000 0.0000 0.0000 0.0000 -1.2813 0.0000 0.0000 0.0000 0.0000 0.0000 0.0000 0.0000 0.0000 1.9219 0.0000 0.0000 0.0000 0.0000 0.4700 0.0000 0.0000 8.0080 0.0000 0.0000 0.0000 0.0000 0.0000 0.0000 0.0000 0.0000 -0.4700 0.0000 0.0000 -8.0080 0.0000 0.0000 0.0000 0.0000 0.0000 0.0000 0.0000 0.0000 0.0000 0.0000 0.0000 0.0000 -8.0080 0.0000 -8.0080 -25.6255 0.0000 0.0000 40.0398 0.0000 0.0000 -9.6095 0.0000
0.0000 89.5371 0.0000 0.0000 0.0000 0.0000 0.0000 -1.5371 0.0000 0.0000 0.0000 0.0000 0.0000 0.0000 0.0000 0.0000 2.3056 0.0000 0.0000 0.0000 0.0000 14.5404 0.0000 0.0000 9.6069 0.0000 0.0000 0.0000 0.0000 0.0000 0.0000 0.0000 0.0000 -14.5404 0.0000 0.0000 -9.6069 0.0000 0.0000 0.0000 0.0000 0.0000 0.0000 0.0000 0.0000 0.0000 0.0000 0.0000 0.0000 -9.6069 0.0000 -9.6069 -30.7419 0.0000 0.0000 48.0343 0.0000 0.0000 -11.5282 0.0000
0.0000 89.8003 0.0000 0.0000 0.0000 0.0000 0.0000 -1.8003 0.0000 0.0000 0.0000 0.0000 0.0000 0.0000 0.0000 0.0000 2.7004 0.0000 0.0000 0.0000 0.0000 29.0163 0.0000 0.0000 11.2519 0.0000 0.0000 0.0000 0.0000 0.0000 0.0000 0.0000 0.0000 -29.0163 0.0000 0.0000 -11.2519 0.0000 0.0000 0.0000 0.0000 0.0000 0.0000 0.0000 0.0000 0.0000 0.0000 0.0000 0.0000 -11.2519 0.0000 -11.2519 -36.0059 0.0000 0.0000 56.2593 0.0000 0.0000 -13.5022 0.0000
0.0000 90.0667 0.0000 0.0000 0.0000 0.0000 0.0000 -2.0667 0.0000 0.0000 0.0000 0.0000 0.0000 0.0000 0.0000 0.0000 3.1000 0.0000 0.0000 0.0000 0.0000 43.6661 0.0000 0.0000 12.9166 0.0000 0.0000 0.0000 0.0000 0.0000 0.0000 0.0000 0.0000 -43.6661 0.0000 0.0000 -12.9166 0.0000 0.0000 0.0000 0.0000 0.0000 0.0000 0.0000 0.0000 0.0000 0.0000 0.0000 0.0000 -12.9166 0.0000 -12.9166 -41.3331 0.0000 0.0000 64.5830 0.0000 0.0000 -15.4999 0.0000
0.0000 90.3320 0.0000 0.0000 0.0000 0.0000 0.0000 -2.3320 0.0000 0.0000 0.0000 0.0000 0.0000 0.0000 0.0000 0.0000 3.4979 0.0000 0.0000 0.0000 0.0000 58.2579 0.0000 0.0000 14.5748 0.0000 0.0000 0.0000 0.0000 0.0000 0.0000 0.0000 0.0000 -58.2579 0.0000 0.0000 -14.5748 0.0000 0.0000 0.0000 0.0000 0.0000 0.0000 0.0000 0.0000 0.0000 0.0000 0.0000 0.0000 -14.5748 0.0000 -14.5748 -46.6392 0.0000 0.0000 72.8738 0.0000 0.0000 -17.4897 0.0000
0.0000 90.5920 0.0000 0.0000 0.0000 0.0000 0.0000 -2.5920 0.0000 0.0000 0.0000 0.0000 0.0000 0.0000 0.0000 0.0000 3.8880 0.0000 0.0000 0.0000 0.0000 72.5600 0.0000 0.0000 16.2000 0.0000 0.0000 0.0000 0.0000 0.0000 0.0000 0.0000 0.0000 -72.5600 0.0000 0.0000 -16.2000 0.0000 0.0000 0.0000 0.0000 0.0000 0.0000 0.0000 0.0000 0.0000 0.0000 0.0000 0.0000 -16.2000 0.0000 -16.2000 -51.8400 0.0000 0.0000 81.0000 0.0000 0.0000 -19.4400 0.0000
0.0000 90.8426 0.0000 0.0000 0.0000 0.0000 0.0000 -2.8426 0.0000 0.0000 0.0000 0.0000 0.0000 0.0000 0.0000 0.0000 4.2638 0.0000 0.0000 0.0000 0.0000 86.3406 0.0000 0.0000 17.7660 0.0000 0.0000 0.0000 0.0000 0.0000 0.0000 0.0000 0.0000 -86.3406 0.0000 0.0000 -17.7660 0.0000 0.0000 0.0000 0.0000 0.0000 0.0000 0.0000 0.0000 0.0000 0.0000 0.0000 0.0000 -17.7660 0.0000 -17.7660 -56.8511 0.0000 0.0000 88.8299 0.0000 0.0000 -21.3192 0.0000
0.0000 91.0794 0.0000 0.0000 0.0000 0.0000 0.0000 -3.0794 0.0000 0.0000 0.0000 0.0000 0.0000 0.0000 0.0000 0.0000 4.6191 0.0000 0.0000 0.0000 0.0000 99.3680 0.0000 0.0000 19.2464 0.0000 0.0000 0.0000 0.0000 0.0000 0.0000 0.0000 0.0000 -99.3680 0.0000 0.0000 -19.2464 0.0000 0.0000 0.0000 0.0000 0.0000 0.0000 0.0000 0.0000 0.0000 0.0000 0.0000 0.0000 -19.2464 0.0000 -19.2464 -61.5884 0.0000 0.0000 96.2318 0.0000 0.0000 -23.0956 0.0000
0.0000 91.2984 0.0000 0.0000 0.0000 0.0000 0.0000 -3.2984 0.0000 0.0000 0.0000 0.0000 0.0000 0.0000 0.0000 0.0000 4.9476 0.0000 0.0000 0.0000 0.0000 111.4104 0.0000 0.0000 20.6148 0.0000 0.0000 0.0000 0.0000 0.0000 0.0000 0.0000 0.0000 -111.4104 0.0000 0.0000 -20.6148 0.0000 0.0000 0.0000 0.0000 0.0000 0.0000 0.0000 0.0000 0.0000 0.0000 0.0000 0.0000 -20.6148 0.0000 -20.6148 -65.9674 0.0000 0.0000 103.0741 0.0000 0.0000 -24.7378 0.0000
0.0000 91.4952 0.0000 0.0000 0.0000 0.0000 0.0000 -3.4952 0.0000 0.0000 0.0000 0.0000 0.0000 0.0000 0.0000 0.0000 5.2428 0.0000 0.0000 0.0000 0.0000 122.2359 0.0000 0.0000 21.8450 0.0000 0.0000 0.0000 0.0000 0.0000 0.0000 0.0000 0.0000 -122.2359 0.0000 0.0000 -21.8450 0.0000 0.0000 0.0000 0.0000 0.0000 0.0000 0.0000 0.0000 0.0000 0.0000 0.0000 0.0000 -21.8450 0.0000 -21.8450 -69.9040 0.0000 0.0000 109.2250 0.0000 0.0000 -26.2140 0.0000
0.0000 91.6657 0.0000 0.0000 0.1095 0.0000 0.0000 -3.6657 0.0000 0.0000 0.0000 0.0000 0.0000 0.0000 0.0000 0.0000 5.4985 0.0000 0.0000 0.0000 0.0000 131.6129 0.0000 0.0000 22.9106 0.0000 0.0000 0.0000 0.0000 0.0000 0.0000 0.0000 0.0000 -131.6129 0.0000 0.0000 -22.9106 0.0000 0.0000 0.0000 0.0000 0.0000 0.0000 0.0000 0.0000 0.0000 0.0000 0.0000 0.0000 -22.9106 0.0000 -22.9106 -73.3138 0.0000 0.0000 114.5528 0.0000 0.0000 -27.4927 0.0000
0.0000 91.8056 0.0000 0.0000 0.9717 0.0000 0.0000 -3.8056 0.0000 0.0000 0.0000 0.0000 0.0000 0.0000 0.0000 0.0000 5.7084 0.0000 0.0000 0.0000 0.0000 139.3096 0.0000 0.0000 23.7852 0.0000 0.0000 0.0000 0.0000 0.0000 0.0000 0.0000 0.0000 -139.3096 0.0000 0.0000 -23.7852 0.0000 0.0000 0.0000 0.0000 0.0000 0.0000 0.0000 0.0000 0.0000 0.0000 0.0000 0.0000 -23.7852 0.0000 -23.7852 -76.1126 0.0000 0.0000 118.9259 0.0000 0.0000 -28.5422 0.0000
0.0000 91.9108 0.0000 0.0000 2.6621 0.0000 0.0000 -3.9108 0.0000 0.0000 0.0000 0.0000 0.0000 0.0000 0.0000 0.0000 5.8662 0.0000 0.0000 0.0000 0.0000 145.0942 0.0000 0.0000 24.4425 0.0000 0.0000 0.0000 0.0000 0.0000 0.0000 0.0000 0.0000 -145.0942 0.0000 0.0000 -24.4425 0.0000 0.0000 0.0000 0.0000 0.0000 0.0000 0.0000 0.0000 0.0000 0.0000 0.0000 0.0000 -24.4425 0.0000 -24.4425 -78.2161 0.0000 0.0000 122.2126 0.0000 0.0000 -29.3310 0.0000
0.0000 91.9770 0.0000 0.0000 5.1449 0.0000 0.0000 -3.9770 0.0000 0.0000 0.0000 0.0000 0.0000 0.0000 0.0000 0.0000 5.9655 0.0000 0.0000 0.0000 0.0000 148.7349 0.0000 0.0000 24.8562 0.0000 0.0000 0.0000 0.0000 0.0000 0.0000 0.0000 0.0000 -148.7349 0.0000 0.0000 -24.8562 0.0000 0.0000 0.0000 0.0000 0.0000 0.0000 0.0000 0.0000 0.0000 0.0000 0.0000 0.0000 -24.8562 0.0000 -24.8562 -79.5400 0.0000 0.0000 124.2812 0.0000 0.0000 -29.8275 0.0000
0.0000 92.0000 0.0000 0.0000 8.3847 0.0000 0.0000 -4.0000 0.0000 0.0000 0.0000 0.0000 0.0000 0.0000 0.0000 0.0000 6.0000 0.0000 0.0000 0.0000 0.0000 150.0000 0.0000 0.0000 25.0000 0.0000 0.0000 0.0000 0.0000 0.0000 0.0000 0.0000 0.0000 -150.0000 0.0000 0.0000 -25.0000 0.0000 0.0000 0.0000 0.0000 0.0000 0.0000 0.0000 0.0000 0.0000 0.0000 0.0000 0.0000 -25.0000 0.0000 -25.0000 -80.0000 0.0000 0.0000 125.0000 0.0000 0.0000 -30.0000 0.0000
0.0000 92.0000 0.0000 0.0000 12.3457 0.0000 0.0000 -4.0000 0.0000 0.0000 0.0000 0.0000 0.0000 0.0000 0.0000 0.0000 6.0000 0.0000 0.0000 0.0000 0.0000 150.0000 0.0000 0.0000 25.0000 0.0000 0.0000 0.0000 0.0000 0.0000 0.0000 0.0000 0.0000 -150.0000 0.0000 0.0000 -25.0000 0.0000 0.0000 0.0000 0.0000 0.0000 0.0000 0.0000 0.0000 0.0000 0.0000 0.0000 0.0000 -25.0000 0.0000 -25.0000 -80.0000 0.0000 0.0000 125.0000 0.0000 0.0000 -30.0000 0.0000
0.0000 92.0000 0.0000 0.0000 16.9923 0.0000 0.0000 -4.0000 0.0000 0.0000 0.0000 0.0000 0.0000 0.0000 0.0000 0.0000 6.0000 0.0000 0.0000 0.0000 0.0000 150.0000 0.0000 0.0000 25.0000 0.0000 0.0000 0.0000 0.0000 0.0000 0.0000 0.0000 0.0000 -150.0000 0.0000 0.0000 -25.0000 0.0000 0.0000 0.0000 0.0000 0.0000 0.0000 0.0000 0.0000 0.0000 0.0000 0.0000 0.0000 -25.0000 0.0000 -25.0000 -80.0000 0.0000 0.0000 125.0000 0.0000 0.0000 -30.0000 0.0000
0.0000 92.0000 0.0000 0.0000 22.2890 0.0000 0.0000 -4.0000 0.0000 0.0000 0.0000 0.0000 0.0000 0.0000 0.0000 0.0000 6.0000 0.0000 0.0000 0.0000 0.0000 150.0000 0.0000 0.0000 25.0000 0.0000 0.0000 0.0000 0.0000 0.0000 0.0000 0.0000 0.0000 -150.0000 0.0000 0.0000 -25.0000 0.0000 0.0000 0.0000 0.0000 0.0000 0.0000 0.0000 0.0000 0.0000 0.0000 0.0000 0.0000 -25.0000 0.0000 -25.0000 -80.0000 0.0000 0.0000 125.0000 0.0000 0.0000 -30.0000 0.0000
0.0000 92.0000 0.0000 0.0000 28.2001 0.0000 0.0000 -4.0000 0.0000 0.0000 0.0000 0.0000 0.0000 0.0000 0.0000 0.0000 6.0000 0.0000 0.0000 0.0000 0.0000 150.0000 0.0000 0.0000 25.0000 0.0000 0.0000 0.0000 0.0000 0.0000 0.0000 0.0000 0.0000 -150.0000 0.0000 0.0000 -25.0000 0.0000 0.0000 0.0000 0.0000 0.0000 0.0000 0.0000 0.0000 0.0000 0.0000 0.0000 0.0000 -25.0000 0.0000 -25.0000 -80.0000 0.0000 0.0000 125.0000 0.0000 0.0000 -30.0000 0.0000
0.0000 92.0000 0.0000 0.0000 34.6900 0.0000 0.0000 -4.0000 0.0000 0.0000 0.0000 0.0000 0.0000 0.0000 0.0000 0.0000 6.0000 0.0000 0.0000 0.0000 0.0000 150.0000 0.0000 0.0000 25.0000 0.0000 0.0000 0.0000 0.0000 0.0000 0.0000 0.0000 0.0000 -150.0000 0.0000 0.0000 -25.0000 0.0000 0.0000 0.0000 0.0000 0.0000 0.0000 0.0000 0.0000 0.0000 0.0000 0.0000 0.0000 -25.0000 0.0000 -25.0000 -80.0000 0.0000 0.0000 125.0000 0.0000 0.0000 -30.0000 0.0000
0.0000 92.0000 0.0000 0.0000 41.7230 0.0000 0.0000 -4.0000 0.0000 0.0000 0.0000 0.0000 0.0000 0.0000 0.0000 0.0000 6.0000 0.0000 0.0000 0.0000 0.0000 150.0000 0.0000 0.0000 25.0000 0.0000 0.0000 0.0000 0.0000 0.0000 0.0000 0.0000 0.0000 -150.0000 0.0000 0.0000 -25.0000 0.0000 0.0000 0.0000 0.0000 0.0000 0.0000 0.0000 0.0000 0.0000 0.0000 0.0000 0.0000 -25.0000 0.0000 -25.0000 -80.0000 0.0000 0.0000 125.0000 0.0000 0.0000 -30.0000 0.0000
0.0000 92.0000 0.0000 0.0000 49.2636 0.0000 0.0000 -4.0000 0.0000 0.0000 0.0000 0.0000 0.0000 0.0000 0.0000 0.0000 6.0000 0.0000 0.0000 0.0000 0.0000 150.0000 0.0000 0.0000 25.0000 0.0000 0.0000 0.0000 0.0000 0.0000 0.0000 0.0000 0.0000 -150.0000 0.0000 0.0000 -25.0000 0.0000 0.0000 0.0000 0.0000 0.0000 0.0000 0.0000 0.0000 0.0000 0.0000 0.0000 0.0000 -25.0000 0.0000 -25.0000 -80.0000 0.0000 0.0000 125.0000 0.0000 0.0000 -30.0000 0.0000
0.0000 92.0000 0.0000 0.0000 57.2762 0.0000 0.0000 -4.0000 0.0000 0.0000 0.0000 0.0000 0.0000 0.0000 0.0000 0.0000 6.0000 0.0000 0.0000 0.0000 0.0000 150.0000 0.0000 0.0000 25.0000 0.0000 0.0000 0.0000 0.0000 0.0000 0.0000 0.0000 0.0000 -150.0000 0.0000 0.0000 -25.0000 0.0000 0.0000 0.0000 0.0000 0.0000 0.0000 0.0000 0.0000 0.0000 0.0000 0.0000 0.0000 -25.0000 0.0000 -25.0000 -80.0000 0.0000 0.0000 125.0000 0.0000 0.0000 -30.0000 0.0000
0.0000 92.0000 0.0000 0.0000 65.7250 0.0000 0.0000 -4.0000 0.0000 0.0000 0.0000 0.0000 0.0000 0.0000 0.0000 0.0000 6.0000 0.0000 0.0000 0.0000 0.0000 150.0000 0.0000 0.0000 25.0000 0.0000 0.0000 0.0000 0.0000 0.0000 0.0000 0.0000 0.0000 -150.0000 0.0000 0.0000 -25.0000 0.0000 0.0000 0.0000 0.0000 0.0000 0.0000 0.0000 0.0000 0.0000 0.0000 0.0000 0.0000 -25.0000 0.0000 -25.0000 -80.0000 0.0000 0.0000 125.0000 0.0000 0.0000 -30.0000 0.0000
0.0000 92.0000 0.0000 0.0000 74.5746 0.0000 0.0000 -4.0000 0.0000 0.0000 0.0000 0.0000 0.0000 0.0000 0.0000 0.0000 6.0000 0.0000 0.0000 0.0000 0.0000 150.0000 0.0000 0.0000 25.0000 0.0000 0.0000 0.0000 0.0000 0.0000 0.0000 0.0000 0.0000 -150.0000 0.0000 0.0000 -25.0000 0.0000 0.0000 0.0000 0.0000 0.0000 0.0000 0.0000 0.0000 0.0000 0.0000 0.0000 0.0000 -25.0000 0.0000 -25.0000 -80.0000 0.0000 0.0000 125.0000 0.0000 0.0000 -30.0000 0.0000
0.0000 92.0000 0.0000 0.0000 83.7892 0.0000 0.0000 -4.0000 0.0000 0.0000 0.0000 0.0000 0.0000 0.0000 0.0000 0.0000 6.0000 0.0000 0.0000 0.0000 0.0000 150.0000 0.0000 0.0000 25.0000 0.0000 0.0000 0.0000 0.0000 0.0000 0.0000 0.0000 0.0000 -150.0000 0.0000 0.0000 -25.0000 0.0000 0.0000 0.0000 0.0000 0.0000 0.0000 0.0000 0.0000 0.0000 0.0000 0.0000 0.0000 -25.0000 0.0000 -25.0000 -80.0000 0.0000 0.0000 125.0000 0.0000 0.0000 -30.0000 0.0000
0.0000 92.0000 0.0000 0.0000 93.3333 0.0000 0.0000 -4.0000 0.0000 0.0000 0.0000 0.0000 0.0000 0.0000 0.0000 0.0000 6.0000 0.0000 0.0000 0.0000 0.0000 150.0000 0.0000 0.0000 25.0000 0.0000 0.0000 0.0000 0.0000 0.0000 0.0000 0.0000 0.0000 -150.0000 0.0000 0.0000 -25.0000 0.0000 0.0000 0.0000 0.0000 0.0000 0.0000 0.0000 0.0000 0.0000 0.0000 0.0000 0.0000 -25.0000 0.0000 -25.0000 -80.0000 0.0000 0.0000 125.0000 0.0000 0.0000 -30.0000 0.0000
0.0000 92.0000 0.0000 0.0000 103.1713 0.0000 0.0000 -4.0000 0.0000 0.0000 0.0000 0.0000 0.0000 0.0000 0.0000 0.0000 6.0000 0.0000 0.0000 0.0000 0.0000 150.0000 0.0000 0.0000 25.0000 0.0000 0.0000 0.0000 0.0000 0.0000 0.0000 0.0000 0.0000 -150.0000 0.0000 0.0000 -25.0000 0.0000 0.0000 0.0000 0.0000 0.0000 0.0000 0.0000 0.0000 0.0000 0.0000 0.0000 0.0000 -25.0000 0.0000 -25.0000 -80.0000 0.0000 0.0000 125.0000 0.0000 0.0000 -30.0000 0.0000
0.0000 92.0000 0.0000 0.0000 113.2675 0.0000 0.0000 -4.0000 0.0000 0.0000 0.0000 0.0000 0.0000 0.0000 0.0000 0.0000 6.0000 0.0000 0.0000 0.0000 0.0000 150.0000 0.0000 0.0000 25.0000 0.0000 0.0000 0.0000 0.0000 0.0000 0.0000 0.0000 0.0000 -150.0000 0.0000 0.0000 -25.0000 0.0000 0.0000 0.0000 0.0000 0.0000 0.0000 0.0000 0.0000 0.0000 0.0000 0.0000 0.0000 -25.0000 0.0000 -25.0000 -80.0000 0.0000 0.0000 125.0000 0.0000 0.0000 -30.0000 0.0000
0.0000 92.0000 0.0000 0.0000 123.5863 0.0000 0.0000 -4.0000 0.0000 0.0000 0.0000 0.0000 0.0000 0.0000 0.0000 0.0000 6.0000 0.0000 0.0000 0.0000 0.0000 150.0000 0.0000 0.0000 25.0000 0.0000 0.0000 0.0000 0.0000 0.0000 0.0000 0.0000 0.0000 -150.0000 0.0000 0.0000 -25.0000 0.0000 0.0000 0.0000 0.0000 0.0000 0.0000 0.0000 0.0000 0.0000 0.0000 0.0000 0.0000 -25.0000 0.0000 -25.0000 -80.0000 0.0000 0.0000 125.0000 0.0000 0.0000 -30.0000 0.0000
0.0000 92.0000 0.0000 0.0000 134.0921 0.0000 0.0000 -4.0000 0.0000 0.0000 0.0000 0.0000 0.0000 0.0000 0.0000 0.0000 6.0000 0.0000 0.0000 0.0000 0.0000 150.0000 0.0000 0.0000 25.0000 0.0000 0.0000 0.0000 0.0000 0.0000 0.0000 0.0000 0.0000 -150.0000 0.0000 0.0000 -25.0000 0.0000 0.0000 0.0000 0.0000 0.0000 0.0000 0.0000 0.0000 0.0000 0.0000 0.0000 0.0000 -25.0000 0.0000 -25.0000 -80.0000 0.0000 0.0000 125.0000 0.0000 0.0000 -30.0000 0.0000
0.0000 92.0000 0.0000 0.0000 144.7492 0.0000 0.0000 -4.0000 0.0000 0.0000 0.0000 0.0000 0.0000 0.0000 0.0000 0.0000 6.0000 0.0000 0.0000 0.0000 0.0000 150.0000 0.0000 0.0000 25.0000 0.0000 0.0000 0.0000 0.0000 0.0000 0.0000 0.0000 0.0000 -150.0000 0.0000 0.0000 -25.0000 0.0000 0.0000 0.0000 0.0000 0.0000 0.0000 0.0000 0.0000 0.0000 0.0000 0.0000 0.0000 -25.0000 0.0000 -25.0000 -80.0000 0.0000 0.0000 125.0000 0.0000 0.0000 -30.0000 0.0000
0.0000 92.0000 0.0000 0.0000 155.5222 0.0000 0.0000 -4.0000 0.0000 0.0000 0.0000 0.0000 0.0000 0.0000 0.0000 0.0000 6.0000 0.0000 0.0000 0.0000 0.0000 150.0000 0.0000 0.0000 25.0000 0.0000 0.0000 0.0000 0.0000 0.0000 0.0000 0.0000 0.0000 -150.0000 0.0000 0.0000 -25.0000 0.0000 0.0000 0.0000 0.0000 0.0000 0.0000 0.0000 0.0000 0.0000 0.0000 0.0000 0.0000 -25.0000 0.0000 -25.0000 -80.0000 0.0000 0.0000 125.0000 0.0000 0.0000 -30.0000 0.0000
0.0000 92.0000 0.0000 0.0000 166.3752 0.0000 0.0000 -4.0000 0.0000 0.0000 0.0000 0.0000 0.0000 0.0000 0.0000 0.0000 6.0000 0.0000 0.0000 0.0000 0.0000 150.0000 0.0000 0.0000 25.0000 0.0000 0.0000 0.0000 0.0000 0.0000 0.0000 0.0000 0.0000 -150.0000 0.0000 0.0000 -25.0000 0.0000 0.0000 0.0000 0.0000 0.0000 0.0000 0.0000 0.0000 0.0000 0.0000 0.0000 0.0000 -25.0000 0.0000 -25.0000 -80.0000 0.0000 0.0000 125.0000 0.0000 0.0000 -30.0000 0.0000
0.0000 92.0000 0.0000 0.0000 177.2728 0.0000 0.0000 -4.0000 0.0000 0.0000 0.0000 0.0000 0.0000 0.0000 0.0000 0.0000 6.0000 0.0000 0.0000 0.0000 0.0000 150.0000 0.0000 0.0000 25.0000 0.0000 0.0000 0.0000 0.0000 0.0000 0.0000 0.0000 0.0000 -150.0000 0.0000 0.0000 -25.0000 0.0000 0.0000 0.0000 0.0000 0.0000 0.0000 0.0000 0.0000 0.0000 0.0000 0.0000 0.0000 -25.0000 0.0000 -25.0000 -80.0000 0.0000 0.0000 125.0000 0.0000 0.0000 -30.0000 0.0000
0.0000 92.0000 0.0000 0.0000 188.1793 0.0000 0.0000 -4.0000 0.0000 0.0000 0.0000 0.0000 0.0000 0.0000 0.0000 0.0000 6.0000 0.0000 0.0000 0.0000 0.0000 150.0000 0.0000 0.0000 25.0000 0.0000 0.0000 0.0000 0.0000 0.0000 0.0000 0.0000 0.0000 -150.0000 0.0000 0.0000 -25.0000 0.0000 0.0000 0.0000 0.0000 0.0000 0.0000 0.0000 0.0000 0.0000 0.0000 0.0000 0.0000 -25.0000 0.0000 -25.0000 -80.0000 0.0000 0.0000 125.0000 0.0000 0.0000 -30.0000 0.0000
0.0000 92.0000 0.0000 0.0000 199.0591 0.0000 0.0000 -4.0000 0.0000 0.0000 0.0000 0.0000 0.0000 0.0000 0.0000 0.0000 6.0000 0.0000 0.0000 0.0000 0.0000 150.0000 0.0000 0.0000 25.0000 0.0000 0.0000 0.0000 0.0000 0.0000 0.0000 0.0000 0.0000 -150.0000 0.0000 0.0000 -25.0000 0.0000 0.0000 0.0000 0.0000 0.0000 0.0000 0.0000 0.0000 0.0000 0.0000 0.0000 0.0000 -25.0000 0.0000 -25.0000 -80.0000 0.0000 0.0000 125.0000 0.0000 0.0000 -30.0000 0.0000
0.0000 92.0000 0.0000 0.0000 209.8765 0.0000 0.0000 -4.0000 0.0000 0.0000 0.0000 0.0000 0.0000 0.0000 0.0000 0.0000 6.0000 0.0000 0.0000 0.0000 0.0000 150.0000 0.0000 0.0000 25.0000 0.0000 0.0000 0.0000 0.0000 0.0000 0.0000 0.0000 0.0000 -150.0000 0.0000 0.0000 -25.0000 0.0000 0.0000 0.0000 0.0000 0.0000 0.0000 0.0000 0.0000 0.0000 0.0000 0.0000 0.0000 -25.0000 0.0000 -25.0000 -80.0000 0.0000 0.0000 125.0000 0.0000 0.0000 -30.0000 0.0000
0.0000 92.0000 0.0000 0.0000 220.5960 0.0000 0.0000 -4.0000 0.0000 0.0000 0.0000 0.0000 0.0000 0.0000 0.0000 0.0000 6.0000 0.0000 0.0000 0.0000 0.0000 150.0000 0.0000 0.0000 25.0000 0.0000 0.0000 0.0000 0.0000 0.0000 0.0000 0.0000 0.0000 -150.0000 0.0000 0.0000 -25.0000 0.0000 0.0000 0.0000 0.0000 0.0000 0.0000 0.0000 0.0000 0.0000 0.0000 0.0000 0.0000 -25.0000 0.0000 -25.0000 -80.0000 0.0000 0.0000 125.0000 0.0000 0.0000 -30.0000 0.0000
0.0000 92.0000 0.0000 0.0000 231.1820 0.0000 0.0000 -4.0000 0.0000 0.0000 0.0000 0.0000 0.0000 0.0000 0.0000 0.0000 6.0000 0.0000 0.0000 0.0000 0.0000 150.0000 0.0000 0.0000 25.0000 0.0000 0.0000 0.0000 0.0000 0.0000 0.0000 0.0000 0.0000 -150.0000 0.0000 0.0000 -25.0000 0.0000 0.0000 0.0000 0.0000 0.0000 0.0000 0.0000 0.0000 0.0000 0.0000 0.0000 0.0000 -25.0000 0.0000 -25.0000 -80.0000 0.0000 0.0000 125.0000 0.0000 0.0000 -30.0000 0.0000
0.0000 92.0000 0.0000 0.0000 241.5987 0.0000 0.0000 -4.0000 0.0000 0.0000 0.0000 0.0000 0.0000 0.0000 0.0000 0.0000 6.0000 0.0000 0.0000 0.0000 0.0000 150.0000 0.0000 0.0000 25.0000 0.0000 0.0000 0.0000 0.0000 0.0000 0.0000 0.0000 0.0000 -150.0000 0.0000 0.0000 -25.0000 0.0000 0.0000 0.0000 0.0000 0.0000 0.0000 0.0000 0.0000 0.0000 0.0000 0.0000 0.0000 -25.0000 0.0000 -25.0000 -80.0000 0.0000 0.0000 125.0000 0.0000 0.0000 -30.0000 0.0000
0.0000 92.0000 0.0000 0.0000 251.8107 0.0000 0.0000 -4.0000 0.0000 0.0000 0.0000 0.0000 0.0000 0.0000 0.0000 0.0000 6.0000 0.0000 0.0000 0.0000 0.0000 150.0000 0.0000 0.0000 25.0000 0.0000 0.0000 0.0000 0.0000 0.0000 0.0000 0.0000 0.0000 -150.0000 0.0000 0.0000 -25.0000 0.0000 0.0000 0.0000 0.0000 0.0000 0.0000 0.0000 0.0000 0.0000 0.0000 0.0000 0.0000 -25.0000 0.0000 -25.0000 -80.0000 0.0000 0.0000 125.0000 0.0000 0.0000 -30.0000 0.0000
0.0000 92.0000 0.0000 0.0000 261.7822 0.0000 0.0000 -4.0000 0.0000 0.0000 0.0000 0.0000 0.0000 0.0000 0.0000 0.0000 6.0000 0.0000 0.0000 0.0000 0.0000 150.0000 0.0000 0.0000 25.0000 0.0000 0.0000 0.0000 0.0000 0.0000 0.0000 0.0000 0.0000 -150.0000 0.0000 0.0000 -25.0000 0.0000 0.0000 0.0000 0.0000 0.0000 0.0000 0.0000 0.0000 0.0000 0.0000 0.0000 0.0000 -25.0000 0.0000 -25.0000 -80.0000 0.0000 0.0000 125.0000 0.0000 0.0000 -30.0000 0.0000
0.0000 92.0000 0.0000 0.0000 271.4777 0.0000 0.0000 -4.0000 0.0000 0.0000 0.0000 0.0000 0.0000 0.0000 0.0000 0.0000 6.0000 0.0000 0.0000 0.0000 0.0000 150.0000 0.0000 0.0000 25.0000 0.0000 0.0000 0.0000 0.0000 0.0000 0.0000 0.0000 0.0000 -150.0000 0.0000 0.0000 -25.0000 0.0000 0.0000 0.0000 0.0000 0.0000 0.0000 0.0000 0.0000 0.0000 0.0000 0.0000 0.0000 -25.0000 0.0000 -25.0000 -80.0000 0.0000 0.0000 125.0000 0.0000 0.0000 -30.0000 0.0000
0.0000 92.0000 0.0000 0.0000 280.8615 0.0000 0.0000 -4.0000 0.0000 0.0000 0.0000 0.0000 0.0000 0.0000 0.0000 0.0000 6.0000 0.0000 0.0000 0.0000 0.0000 150.0000 0.0000 0.0000 25.0000 0.0000 0.0000 0.0000 0.0000 0.0000 0.0000 0.0000 0.0000 -150.0000 0.0000 0.0000 -25.0000 0.0000 0.0000 0.0000 0.0000 0.0000 0.0000 0.0000 0.0000 0.0000 0.0000 0.0000 0.0000 -25.0000 0.0000 -25.0000 -80.0000 0.0000 0.0000 125.0000 0.0000 0.0000 -30.0000 0.0000
0.0000 92.0000 0.0000 0.0000 289.8981 0.0000 0.0000 -4.0000 0.0000 0.0000 0.0000 0.0000 0.0000 0.0000 0.0000 0.0000 6.0000 0.0000 0.0000 0.0000 0.0000 150.0000 0.0000 0.0000 25.0000 0.0000 0.0000 0.0000 0.0000 0.0000 0.0000 0.0000 0.0000 -150.0000 0.0000 0.0000 -25.0000 0.0000 0.0000 0.0000 0.0000 0.0000 0.0000 0.0000 0.0000 0.0000 0.0000 0.0000 0.0000 -25.0000 0.0000 -25.0000 -80.0000 0.0000 0.0000 125.0000 0.0000 0.0000 -30.0000 0.0000
0.0000 92.0000 0.0000 0.0000 298.5517 0.0000 0.0000 -4.0000 0.0000 0.0000 0.0000 0.0000 0.0000 0.0000 0.0000 0.0000 6.0000 0.0000 0.0000 0.0000 0.0000 150.0000 0.0000 0.0000 25.0000 0.0000 0.0000 0.0000 0.0000 0.0000 0.0000 0.0000 0.0000 -150.0000 0.0000 0.0000 -25.0000 0.0000 0.0000 0.0000 0.0000 0.0000 0.0000 0.0000 0.0000 0.0000 0.0000 0.0000 0.0000 -25.0000 0.0000 -25.0000 -80.0000 0.0000 0.0000 125.0000 0.0000 0.0000 -30.0000 0.0000
0.0000 92.0000 0.0000 0.0000 306.7869 0.0000 0.0000 -4.0000 0.0000 0.0000 0.0000 0.0000 0.0000 0.0000 0.0000 0.0000 6.0000 0.0000 0.0000 0.0000 0.0000 150.0000 0.0000 0.0000 25.0000 0.0000 0.0000 0.0000 0.0000 0.0000 0.0000 0.0000 0.0000 -150.0000 0.0000 0.0000 -25.0000 0.0000 0.0000 0.0000 0.0000 0.0000 0.0000 0.0000 0.0000 0.0000 0.0000 0.0000 0.0000 -25.0000 0.0000 -25.0000 -80.0000 0.0000 0.0000 125.0000 0.0000 0.0000 -30.0000 0.0000
0.0000 92.0000 0.0000 0.0000 314.5679 0.0000 0.0000 -4.0000 0.0000 0.0000 0.0000 0.0000 0.0000 0.0000 0.0000 0.0000 6.0000 0.0000 0.0000 0.0000 0.0000 150.0000 0.0000 0.0000 25.0000 0.0000 0.0000 0.0000 0.0000 0.0000 0.0000 0.0000 0.0000 -150.0000 0.0000 0.0000 -25.0000 0.0000 0.0000 0.0000 0.0000 0.0000 0.0000 0.0000 0.0000 0.0000 0.0000 0.0000 0.0000 -25.0000 0.0000 -25.0000 -80.0000 0.0000 0.0000 125.0000 0.0000 0.0000 -30.0000 0.0000
0.0000 92.0000 0.0000 0.0000 321.8592 0.0000 0.0000 -4.0000 0.0000 0.0000 0.0000 0.0000 0.0000 0.0000 0.0000 0.0000 6.0000 0.0000 0.0000 0.0000 0.0000 150.0000 0.0000 0.0000 25.0000 0.0000 0.0000 0.0000 0.0000 0.0000 0.0000 0.0000 0.0000 -150.0000 0.0000 0.0000 -25.0000 0.0000 0.0000 0.0000 0.0000 0.0000 0.0000 0.0000 0.0000 0.0000 0.0000 0.0000 0.0000 -25.0000 0.0000 -25.0000 -80.0000 0.0000 0.0000 125.0000 0.0000 0.0000 -30.0000 0.0000
0.0000 92.0000 0.0000 0.0000 328.6251 0.0000 0.0000 -4.0000 0.0000 0.0000 0.0000 0.0000 0.0000 0.0000 0.0000 0.0000 6.0000 0.0000 0.0000 0.0000 0.0000 150.0000 0.0000 0.0000 25.0000 0.0000 0.0000 0.0000 0.0000 0.0000 0.0000 0.0000 0.0000 -150.0000 0.0000 0.0000 -25.0000 0.0000 0.0000 0.0000 0.0000 0.0000 0.0000 0.0000 0.0000 0.0000 0.0000 0.0000 0.0000 -25.0000 0.0000 -25.0000 -80.0000 0.0000 0.0000 125.0000 0.0000 0.0000 -30.0000 0.0000
0.0000 92.0000 0.0000 0.0000 334.8300 0.0000 0.0000 -4.0000 0.0000 0.0000 0.0000 0.0000 0.0000 0.0000 0.0000 0.0000 6.0000 0.0000 0.0000 0.0000 0.0000 150.0000 0.0000 0.0000 25.0000 0.0000 0.0000 0.0000 0.0000 0.0000 0.0000 0.0000 0.0000 -150.0000 0.0000 0.0000 -25.0000 0.0000 0.0000 0.0000 0.0000 0.0000 0.0000 0.0000 0.0000 0.0000 0.0000 0.0000 0.0000 -25.0000 0.0000 -25.0000 -80.0000 0.0000 0.0000 125.0000 0.0000 0.0000 -30.0000 0.0000
0.0000 92.0000 0.0000 0.0000 340.4384 0.0000 0.0000 -4.0000 0.0000 0.0000 0.0000 0.0000 0.0000 0.0000 0.0000 0.0000 6.0000 0.0000 0.0000 0.0000 0.0000 150.0000 0.0000 0.0000 25.0000 0.0000 0.0000 0.0000 0.0000 0.0000 0.0000 0.0000 0.0000 -150.0000 0.0000 0.0000 -25.0000 0.0000 0.0000 0.0000 0.0000 0.0000 0.0000 0.0000 0.0000 0.0000 0.0000 0.0000 0.0000 -25.0000 0.0000 -25.0000 -80.0000 0.0000 0.0000 125.0000 0.0000 0.0000 -30.0000 0.0000
0.0000 92.0000 0.0000 0.0000 345.4145 0.0000 0.0000 -4.0000 0.0000 0.0000 0.0000 0.0000 0.0000 0.0000 0.0000 0.0000 6.0000 0.0000 0.0000 0.0000 0.0000 150.0000 0.0000 0.0000 25.0000 0.0000 0.0000 0.0000 0.0000 0.0000 0.0000 0.0000 0.0000 -150.0000 0.0000 0.0000 -25.0000 0.0000 0.0000 0.0000 0.0000 0.0000 0.0000 0.0000 0.0000 0.0000 0.0000 0.0000 0.0000 -25.0000 0.0000 -25.0000 -80.0000 0.0000 0.0000 125.0000 0.0000 0.0000 -30.0000 0.0000
0.0000 92.0000 0.0000 0.0000 349.7228 0.0000 0.0000 -4.0000 0.0000 0.0000 0.0000 0.0000 0.0000 0.0000 0.0000 0.0000 6.0000 0.0000 0.0000 0.0000 0.0000 150.0000 0.0000 0.0000 25.0000 0.0000 0.0000 0.0000 0.0000 0.0000 0.0000 0.0000 0.0000 -150.0000 0.0000 0.0000 -25.0000 0.0000 0.0000 0.0000 0.0000 0.0000 0.0000 0.0000 0.0000 0.0000 0.0000 0.0000 0.0000 -25.0000 0.0000 -25.0000 -80.0000 0.0000 0.0000 125.0000 0.0000 0.0000 -30.0000 0.0000
0.0000 91.9909 0.0000 0.0000 353.3276 0.0000 0.0000 -3.9909 0.0000 0.0000 0.0000 0.0000 0.0000 0.0000 0.0000 0.0000 5.9864 0.0000 0.0000 0.0000 0.0000 149.5002 0.0000 0.0000 24.9432 0.0000 0.0000 0.0000 0.0000 0.0000 0.0000 0.0000 0.0000 -149.5002 0.0000 0.0000 -24.9432 0.0000 0.0000 0.0000 0.0000 0.0000 0.0000 0.0000 0.0000 0.0000 0.0000 0.0000 0.0000 -24.9432 0.0000 -24.9432 -79.8182 0.0000 0.0000 124.7160 0.0000 0.0000 -29.9318 0.0000
0.0000 91.9213 0.0000 0.0000 356.1933 0.0000 0.0000 -3.9213 0.0000 0.0000 0.0000 0.0000 0.0000 0.0000 0.0000 0.0000 5.8819 0.0000 0.0000 0.0000 0.0000 145.6713 0.0000 0.0000 24.5081 0.0000 0.0000 0.0000 0.0000 0.0000 0.0000 0.0000 0.0000 -145.6713 0.0000 0.0000 -24.5081 0.0000 0.0000 0.0000 0.0000 0.0000 0.0000 0.0000 0.0000 0.0000 0.0000 0.0000 0.0000 -24.5081 0.0000 -24.5081 -78.4259 0.0000 0.0000 122.5405 0.0000 0.0000 -29.4097 0.0000
0.0000 91.7900 0.0000 0.0000 358.2844 0.0000 0.0000 -3.7900 0.0000 0.0000 0.0000 0.0000 0.0000 0.0000 0.0000 0.0000 5.6849 0.0000 0.0000 0.0000 0.0000 138.4474 0.0000 0.0000 23.6872 0.0000 0.0000 0.0000 0.0000 0.0000 0.0000 0.0000 0.0000 -138.4474 0.0000 0.0000 -23.6872 0.0000 0.0000 0.0000 0.0000 0.0000 0.0000 0.0000 0.0000 0.0000 0.0000 0.0000 0.0000 -23.6872 0.0000 -23.6872 -75.7990 0.0000 0.0000 118.4360 0.0000 0.0000 -28.4246 0.0000
0.0000 91.6051 0.0000 0.0000 359.5652 0.0000 0.0000 -3.6051 0.0000 0.0000 0.0000 0.0000 0.0000 0.0000 0.0000 0.0000 5.4077 0.0000 0.0000 0.0000 0.0000 128.2810 0.0000 0.0000 22.5319 0.0000 0.0000 0.0000 0.0000 0.0000 0.0000 0.0000 0.0000 -128.2810 0.0000 0.0000 -22.5319 0.0000 0.0000 0.0000 0.0000 0.0000 0.0000 0.0000 0.0000 0.0000 0.0000 0.0000 0.0000 -22.5319 0.0000 -22.5319 -72.1022 0.0000 0.0000 112.6597 0.0000 0.0000 -27.0383 0.0000
0.0000 91.3750 0.0000 0.0000 360.0000 0.0000 0.0000 -3.3750 0.0000 0.0000 0.0000 0.0000 0.0000 0.0000 0.0000 0.0000 5.0625 0.0000 0.0000 0.0000 0.0000 115.6250 0.0000 0.0000 21.0937 0.0000 0.0000 0.0000 0.0000 0.0000 0.0000 0.0000 0.0000 -115.6250 0.0000 0.0000 -21.0937 0.0000 0.0000 0.0000 0.0000 0.0000 0.0000 0.0000 0.0000 0.0000 0.0000 0.0000 0.0000 -21.0937 0.0000 -21.0937 -67.5000 0.0000 0.0000 105.4687 0.0000 0.0000 -25.3125 0.0000
0.0000 91.1079 0.0000 0.0000 360.0000 0.0000 0.0000 -3.1079 0.0000 0.0000 0.0000 0.0000 0.0000 0.0000 0.0000 0.0000 4.6618 0.0000 0.0000 0.0000 0.0000 100.9319 0.0000 0.0000 19.4241 0.0000 0.0000 0.0000 0.0000 0.0000 0.0000 0.0000 0.0000 -100.9319 0.0000 0.0000 -19.4241 0.0000 0.0000 0.0000 0.0000 0.0000 0.0000 0.0000 0.0000 0.0000 0.0000 0.0000 0.0000 -19.4241 0.0000 -19.4241 -62.1571 0.0000 0.0000 97.1204 0.0000 0.0000 -23.3089 0.0000
0.0000 90.8119 0.0000 0.0000 360.0000 0.0000 0.0000 -2.8119 0.0000 0.0000 0.0000 0.0000 0.0000 0.0000 0.0000 0.0000 4.2178 0.0000 0.0000 0.0000 0.0000 84.6545 0.0000 0.0000 17.5744 0.0000 0.0000 0.0000 0.0000 0.0000 0.0000 0.0000 0.0000 -84.6545 0.0000 0.0000 -17.5744 0.0000 0.0000 0.0000 0.0000 0.0000 0.0000 0.0000 0.0000 0.0000 0.0000 0.0000 0.0000 -17.5744 0.0000 -17.5744 -56.2380 0.0000 0.0000 87.8719 0.0000 0.0000 -21.0892 0.0000
0.0000 90.4954 0.0000 0.0000 360.0000 0.0000 0.0000 -2.4954 0.0000 0.0000 0.0000 0.0000 0.0000 0.0000 0.0000 0.0000 3.7431 0.0000 0.0000 0.0000 0.0000 67.2454 0.0000 0.0000 15.5961 0.0000 0.0000 0.0000 0.0000 0.0000 0.0000 0.0000 0.0000 -67.2454 0.0000 0.0000 -15.5961 0.0000 0.0000 0.0000 0.0000 0.0000 0.0000 0.0000 0.0000 0.0000 0.0000 0.0000 0.0000 -15.5961 0.0000 -15.5961 -49.9074 0.0000 0.0000 77.9803 0.0000 0.0000 -18.7153 0.0000
0.0000 90.1665 0.0000 0.0000 360.0000 0.0000 0.0000 -2.1665 0.0000 0.0000 0.0000 0.0000 0.0000 0.0000 0.0000 0.0000 3.2497 0.0000 0.0000 0.0000 0.0000 49.1572 0.0000 0.0000 13.5406 0.0000 0.0000 0.0000 0.0000 0.0000 0.0000 0.0000 0.0000 -49.1572 0.0000 0.0000 -13.5406 0.0000 0.0000 0.0000 0.0000 0.0000 0.0000 0.0000 0.0000 0.0000 0.0000 0.0000 0.0000 -13.5406 0.0000 -13.5406 -43.3299 0.0000 0.0000 67.7030 0.0000 0.0000 -16.2487 0.0000
0.0000 89.8335 0.0000 0.0000 360.0000 0.0000 0.0000 -1.8335 0.0000 0.0000 0.0000 0.0000 0.0000 0.0000 0.0000 0.0000 2.7503 0.0000 0.0000 0.0000 0.0000 30.8428 0.0000 0.0000 11.4594 0.0000 0.0000 0.0000 0.0000 0.0000 0.0000 0.0000 0.0000 -30.8428 0.0000 0.0000 -11.4594 0.0000 0.0000 0.0000 0.0000 0.0000 0.0000 0.0000 0.0000 0.0000 0.0000 0.0000 0.0000 -11.4594 0.0000 -11.4594 -36.6701 0.0000 0.0000 57.2970 0.0000 0.0000 -13.7513 0.0000
0.0000 89.5046 0.0000 0.0000 360.0000 0.0000 0.0000 -1.5046 0.0000 0.0000 0.0000 0.0000 0.0000 0.0000 0.0000 0.0000 2.2569 0.0000 0.0000 0.0000 0.0000 12.7546 0.0000 0.0000 9.4039 0.0000 0.0000 0.0000 0.0000 0.0000 0.0000 0.0000 0.0000 -12.7546 0.0000 0.0000 -9.4039 0.0000 0.0000 0.0000 0.0000 0.0000 0.0000 0.0000 0.0000 0.0000 0.0000 0.0000 0.0000 -9.4039 0.0000 -9.4039 -30.0926 0.0000 0.0000 47.0197 0.0000 0.0000 -11.2847 0.0000
0.0000 89.1881 0.0000 0.0000 360.0000 0.0000 0.0000 -1.1881 0.0000 0.0000 0.0000 0.0000 0.0000 0.0000 0.0000 0.0000 1.7822 0.0000 0.0000 0.0000 0.0000 -4.6545 0.0000 0.0000 7.4256 0.0000 0.0000 0.0000 0.0000 0.0000 0.0000 0.0000 0.0000 4.6545 0.0000 0.0000 -7.4256 0.0000 0.0000 0.0000 0.0000 0.0000 0.0000 0.0000 0.0000 0.0000 0.0000 0.0000 0.0000 -7.4256 0.0000 -7.4256 -23.7620 0.0000 0.0000 37.1281 0.0000 0.0000 -8.9108 0.0000
0.0000 88.8921 0.0000 0.0000 360.0000 0.0000 0.0000 -0.8921 0.0000 0.0000 0.0000 0.0000 0.0000 0.0000 0.0000 0.0000 1.3382 0.0000 0.0000 0.0000 0.0000 -20.9319 0.0000 0.0000 5.5759 0.0000 0.0000 0.0000 0.0000 0.0000 0.0000 0.0000 0.0000 20.9319 0.0000 0.0000 -5.5759 0.0000 0.0000 0.0000 0.0000 0.0000 0.0000 0.0000 0.0000 0.0000 0.0000 0.0000 0.0000 -5.5759 0.0000 -5.5759 -17.8429 0.0000 0.0000 27.8796 0.0000 0.0000 -6.6911 0.0000
0.0000 88.6250 0.0000 0.0000 360.0000 0.0000 0.0000 -0.6250 0.0000 0.0000 0.0000 0.0000 0.0000 0.0000 0.0000 0.0000 0.9375 0.0000 0.0000 0.0000 0.0000 -35.6250 0.0000 0.0000 3.9062 0.0000 0.0000 0.0000 0.0000 0.0000 0.0000 0.0000 0.0000 35.6250 0.0000 0.0000 -3.9062 0.0000 0.0000 0.0000 0.0000 0.0000 0.0000 0.0000 0.0000 0.0000 0.0000 0.0000 0.0000 -3.9062 0.0000 -3.9062 -12.5000 0.0000 0.0000 19.5312 0.0000 0.0000 -4.6875 0.0000
0.0000 88.3949 0.0000 0.0000 360.0000 0.0000 0.0000 -0.3949 0.0000 0.0000 0.0000 0.0000 0.0000 0.0000 0.0000 0.0000 0.5923 0.0000 0.0000 0.0000 0.0000 -48.2810 0.0000 0.0000 2.4681 0.0000 0.0000 0.0000 0.0000 0.0000 0.0000 0.0000 0.0000 48.2810 0.0000 0.0000 -2.4681 0.0000 0.0000 0.0000 0.0000 0.0000 0.0000 0.0000 0.0000 0.0000 0.0000 0.0000 0.0000 -2.4681 0.0000 -2.4681 -7.8978 0.0000 0.0000 12.3403 0.0000 0.0000 -2.9617 0.0000
0.0000 88.2100 0.0000 0.0000 360.0000 0.0000 0.0000 -0.2100 0.0000 0.0000 0.0000 0.0000 0.0000 0.0000 0.0000 0.0000 0.3151 0.0000 0.0000 0.0000 0.0000 -58.4474 0.0000 0.0000 1.3128 0.0000 0.0000 0.0000 0.0000 0.0000 0.0000 0.0000 0.0000 58.4474 0.0000 0.0000 -1.3128 0.0000 0.0000 0.0000 0.0000 0.0000 0.0000 0.0000 0.0000 0.0000 0.0000 0.0000 0.0000 -1.3128 0.0000 -1.3128 -4.2010 0.0000 0.0000 6.5640 0.0000 0.0000 -1.5754 0.0000
0.0000 88.0787 0.0000 0.0000 360.0000 0.0000 0.0000 -0.0787 0.0000 0.0000 0.0000 0.0000 0.0000 0.0000 0.0000 0.0000 0.1181 0.0000 0.0000 0.0000 0.0000 -65.6713 0.0000 0.0000 0.4919 0.0000 0.0000 0.0000 0.0000 0.0000 0.0000 0.0000 0.0000 65.6713 0.0000 0.0000 -0.4919 0.0000 0.0000 0.0000 0.0000 0.0000 0.0000 0.0000 0.0000 0.0000 0.0000 0.0000 0.0000 -0.4919 0.0000 -0.4919 -1.5741 0.0000 0.0000 2.4595 0.0000 0.0000 -0.5903 0.0000
0.0000 88.0091 0.0000 0.0000 360.0000 0.0000 0.0000 -0.0091 0.0000 0.0000 0.0000 0.0000 0.0000 0.0000 0.0000 0.0000 0.0136 0.0000 0.0000 0.0000 0.0000 -69.5002 0.0000 0.0000 0.0568 0.0000 0.0000 0.0000 0.0000 0.0000 0.0000 0.0000 0.0000 69.5002 0.0000 0.0000 -0.0568 0.0000 0.0000 0.0000 0.0000 0.0000 0.0000 0.0000 0.0000 0.0000 0.0000 0.0000 0.0000 -0.0568 0.0000 -0.0568 -0.1818 0.0000 0.0000 0.2840 0.0000 0.0000 -0.0682 0.0000
0.0000 88.0000 0.0000 0.0000 360.0000 0.0000 0.0000 -0.0000 0.0000 0.0000 0.0000 0.0000 0.0000 0.0000 0.0000 0.0000 0.0000 0.0000 0.0000 0.0000 0.0000 -70.0000 0.0000 0.0000 0.0000 0.0000 0.0000 0.0000 0.0000 0.0000 0.0000 0.0000 0.0000 70.0000 0.0000 0.0000 -0.0000 0.0000 0.0000 0.0000 0.0000 0.0000 0.0000 0.0000 0.0000 0.0000 0.0000 0.0000 0.0000 -0.0000 0.0000 -0.0000 -0.0000 0.0000 0.0000 0.0000 0.0000 0.0000 -0.0000 0.0000
0.0000 88.0000 0.0000 0.0000 360.0000 0.0000 0.0000 -0.0000 0.0000 0.0000 0.0000 0.0000 0.0000 0.0000 0.0000 0.0000 0.0000 0.0000 0.0000 0.0000 0.0000 -70.0000 0.0000 0.0000 0.0000 0.0000 0.0000 0.0000 0.0000 0.0000 0.0000 0.0000 0.0000 70.0000 0.0000 0.0000 -0.0000 0.0000 0.0000 0.0000 0.0000 0.0000 0.0000 0.0000 0.0000 0.0000 0.0000 0.0000 0.0000 -0.0000 0.0000 -0.0000 -0.0000 0.0000 0.0000 0.0000 0.0000 0.0000 -0.0000 0.0000
0.0000 88.0000 0.0000 0.0000 360.0000 0.0000 0.0000 -0.0000 0.0000 0.0000 0.0000 0.0000 0.0000 0.0000 0.0000 0.0000 0.0000 0.0000 0.0000 0.0000 0.0000 -70.0000 0.0000 0.0000 0.0000 0.0000 0.0000 0.0000 0.0000 0.0000 0.0000 0.0000 0.0000 70.0000 0.0000 0.0000 -0.0000 0.0000 0.0000 0.0000 0.0000 0.0000 0.0000 0.0000 0.0000 0.0000 0.0000 0.0000 0.0000 -0.0000 0.0000 -0.0000 -0.0000 0.0000 0.0000 0.0000 0.0000 0.0000 -0.0000 0.0000
0.0000 88.0000 0.0000 0.0000 360.0000 0.0000 0.0000 -0.0000 0.0000 0.0000 0.0000 0.0000 0.0000 0.0000 0.0000 0.0000 0.0000 0.0000 0.0000 0.0000 0.0000 -70.0000 0.0000 0.0000 0.0000 0.0000 0.0000 0.0000 0.0000 0.0000 0.0000 0.0000 0.0000 70.0000 0.0000 0.0000 -0.0000 0.0000 0.0000 0.0000 0.0000 0.0000 0.0000 0.0000 0.0000 0.0000 0.0000 0.0000 0.0000 -0.0000 0.0000 -0.0000 -0.0000 0.0000 0.0000 0.0000 0.0000 0.0000 -0.0000 0.0000
